SHIJIAN-6 05A (SJ-6 05A)
1 49961U 21122A   26068.88345882  .00003299  00000+0  27617-3 0  9993
2 49961  97.4012  42.3306 0003221  76.6317 283.5266 14.99085264233873
STARLINK-5811           
1 55787U 23028AY  26068.76091191 -.00000123  00000+0 -25248-5 0  9996
2 55787  70.0008 204.4047 0003061 265.1387  94.9423 14.98326371167034
